{
  "type": "FeatureCollection",
  "features": [
    {
      "type": "Feature",
      "properties": {
        "norad_id": 66446,
        "name": "STARLINK-34986",
        "group": "last-30-days",
        "lat": 14.660803830235979,
        "lon": 121.09478804752125,
        "alt_km": 413.2739786662487,
        "timestamp": "2025-12-02T21:34:00.041931+00:00",
        "meta_object_name": "STARLINK-34986",
        "meta_object_id": "2025-259AA",
        "meta_epoch": "2025-12-02T12:00:05.998752",
        "meta_mean_motion": 15.50538374,
        "meta_eccentricity": 0.0001474,
        "meta_inclination": 42.9996,
        "meta_ra_of_asc_node": 107.1214,
        "meta_arg_of_pericenter": 253.8645,
        "meta_mean_anomaly": 60.6565,
        "meta_ephemeris_type": 0,
        "meta_classification_type": "U",
        "meta_norad_cat_id": 66446,
        "meta_element_set_no": 999,
        "meta_rev_at_epoch": 463,
        "meta_bstar": 0.00095297,
        "meta_mean_motion_dot": 0.00055883,
        "meta_mean_motion_ddot": 0,
        "tle_line1": "1 66446U 25259AA  25336.50006943  .00055883  00000+0  95297-3 0  9998",
        "tle_line2": "2 66446  42.9996 107.1214 0001474 253.8645  60.6565 15.50538374  4634"
      },
      "geometry": {
        "type": "Point",
        "coordinates": [
          121.09478804752125,
          14.660803830235979
        ]
      }
    },
    {
      "type": "Feature",
      "properties": {
        "norad_id": 66447,
        "name": "STARLINK-34851",
        "group": "last-30-days",
        "lat": 17.22597385669289,
        "lon": 124.21482204202204,
        "alt_km": 412.9474508047797,
        "timestamp": "2025-12-02T21:34:00.041941+00:00",
        "meta_object_name": "STARLINK-34851",
        "meta_object_id": "2025-259AB",
        "meta_epoch": "2025-12-02T12:00:05.998752",
        "meta_mean_motion": 15.50597982,
        "meta_eccentricity": 0.0001763,
        "meta_inclination": 42.9996,
        "meta_ra_of_asc_node": 107.112,
        "meta_arg_of_pericenter": 269.2585,
        "meta_mean_anomaly": 49.2063,
        "meta_ephemeris_type": 0,
        "meta_classification_type": "U",
        "meta_norad_cat_id": 66447,
        "meta_element_set_no": 999,
        "meta_rev_at_epoch": 452,
        "meta_bstar": -0.001529,
        "meta_mean_motion_dot": -0.0008909,
        "meta_mean_motion_ddot": 0,
        "tle_line1": "1 66447U 25259AB  25336.50006943 -.00089090  00000+0 -15290-2 0  9992",
        "tle_line2": "2 66447  42.9996 107.1120 0001763 269.2585  49.2063 15.50597982  4520"
      },
      "geometry": {
        "type": "Point",
        "coordinates": [
          124.21482204202204,
          17.22597385669289
        ]
      }
    },
    {
      "type": "Feature",
      "properties": {
        "norad_id": 66448,
        "name": "STARLINK-35355",
        "group": "last-30-days",
        "lat": 18.380869020973847,
        "lon": 125.66680944819858,
        "alt_km": 412.78350012326246,
        "timestamp": "2025-12-02T21:34:00.041953+00:00",
        "meta_object_name": "STARLINK-35355",
        "meta_object_id": "2025-259AC",
        "meta_epoch": "2025-12-02T12:00:05.998752",
        "meta_mean_motion": 15.50545626,
        "meta_eccentricity": 0.0001484,
        "meta_inclination": 42.9998,
        "meta_ra_of_asc_node": 107.1076,
        "meta_arg_of_pericenter": 252.4719,
        "meta_mean_anomaly": 67.7965,
        "meta_ephemeris_type": 0,
        "meta_classification_type": "U",
        "meta_norad_cat_id": 66448,
        "meta_element_set_no": 999,
        "meta_rev_at_epoch": 463,
        "meta_bstar": 0.00088603,
        "meta_mean_motion_dot": 0.00051921,
        "meta_mean_motion_ddot": 0,
        "tle_line1": "1 66448U 25259AC  25336.50006943  .00051921  00000+0  88603-3 0  9992",
        "tle_line2": "2 66448  42.9998 107.1076 0001484 252.4719  67.7965 15.50545626  4632"
      },
      "geometry": {
        "type": "Point",
        "coordinates": [
          125.66680944819858,
          18.380869020973847
        ]
      }
    },
    {
      "type": "Feature",
      "properties": {
        "norad_id": 66449,
        "name": "STARLINK-34720",
        "group": "last-30-days",
        "lat": 19.593821207254372,
        "lon": 127.22836565230051,
        "alt_km": 412.58630178602107,
        "timestamp": "2025-12-02T21:34:00.041964+00:00",
        "meta_object_name": "STARLINK-34720",
        "meta_object_id": "2025-259AD",
        "meta_epoch": "2025-12-02T12:00:05.998752",
        "meta_mean_motion": 15.50547493,
        "meta_eccentricity": 0.0001389,
        "meta_inclination": 42.9998,
        "meta_ra_of_asc_node": 107.1025,
        "meta_arg_of_pericenter": 250.6783,
        "meta_mean_anomaly": 71.5021,
        "meta_ephemeris_type": 0,
        "meta_classification_type": "U",
        "meta_norad_cat_id": 66449,
        "meta_element_set_no": 999,
        "meta_rev_at_epoch": 452,
        "meta_bstar": 0.00088456,
        "meta_mean_motion_dot": 0.00051837,
        "meta_mean_motion_ddot": 0,
        "tle_line1": "1 66449U 25259AD  25336.50006943  .00051837  00000+0  88456-3 0  9995",
        "tle_line2": "2 66449  42.9998 107.1025 0001389 250.6783  71.5021 15.50547493  4520"
      },
      "geometry": {
        "type": "Point",
        "coordinates": [
          127.22836565230051,
          19.593821207254372
        ]
      }
    },
    {
      "type": "Feature",
      "properties": {
        "norad_id": 66450,
        "name": "STARLINK-35334",
        "group": "last-30-days",
        "lat": 20.786475675742736,
        "lon": 128.8042967993343,
        "alt_km": 412.52941533350076,
        "timestamp": "2025-12-02T21:34:00.041974+00:00",
        "meta_object_name": "STARLINK-35334",
        "meta_object_id": "2025-259AE",
        "meta_epoch": "2025-12-02T12:00:05.998752",
        "meta_mean_motion": 15.50536611,
        "meta_eccentricity": 0.0001435,
        "meta_inclination": 42.9998,
        "meta_ra_of_asc_node": 107.0969,
        "meta_arg_of_pericenter": 244.3882,
        "meta_mean_anomaly": 79.7094,
        "meta_ephemeris_type": 0,
        "meta_classification_type": "U",
        "meta_norad_cat_id": 66450,
        "meta_element_set_no": 999,
        "meta_rev_at_epoch": 463,
        "meta_bstar": 0.00095664,
        "meta_mean_motion_dot": 0.00056098,
        "meta_mean_motion_ddot": 0,
        "tle_line1": "1 66450U 25259AE  25336.50006943  .00056098  00000+0  95664-3 0  9990",
        "tle_line2": "2 66450  42.9998 107.0969 0001435 244.3882  79.7094 15.50536611  4632"
      },
      "geometry": {
        "type": "Point",
        "coordinates": [
          128.8042967993343,
          20.786475675742736
        ]
      }
    },
    {
      "type": "Feature",
      "properties": {
        "norad_id": 66454,
        "name": "VIASAT-3 F2",
        "group": "last-30-days",
        "lat": 1.668544849420426,
        "lon": 95.93051274940404,
        "alt_km": 12535.496468340221,
        "timestamp": "2025-12-02T21:34:00.041986+00:00",
        "meta_object_name": "VIASAT-3 F2",
        "meta_object_id": "2025-261A",
        "meta_epoch": "2025-12-01T18:36:31.725216",
        "meta_mean_motion": 2.2815034,
        "meta_eccentricity": 0.23416718,
        "meta_inclination": 5.5759,
        "meta_ra_of_asc_node": 293.3594,
        "meta_arg_of_pericenter": 183.7944,
        "meta_mean_anomaly": 144.3606,
        "meta_ephemeris_type": 0,
        "meta_classification_type": "U",
        "meta_norad_cat_id": 66454,
        "meta_element_set_no": 999,
        "meta_rev_at_epoch": 39,
        "meta_bstar": 0,
        "meta_mean_motion_dot": -4.6e-07,
        "meta_mean_motion_ddot": 0,
        "tle_line1": "1 66454U 25261A   25335.77536719 -.00000046  00000+0  00000+0 0  9993",
        "tle_line2": "2 66454   5.5759 293.3594 2341671 183.7944 144.3606  2.28150340   394"
      },
      "geometry": {
        "type": "Point",
        "coordinates": [
          95.93051274940404,
          1.668544849420426
        ]
      }
    },
    {
      "type": "Feature",
      "properties": {
        "norad_id": 66455,
        "name": "ATLAS 5 CENTAUR R/B",
        "group": "last-30-days",
        "lat": 3.1723590058991302,
        "lon": 81.7689243787406,
        "alt_km": 12988.332224124446,
        "timestamp": "2025-12-02T21:34:00.041997+00:00",
        "meta_object_name": "ATLAS 5 CENTAUR R/B",
        "meta_object_id": "2025-261B",
        "meta_epoch": "2025-12-02T05:50:10.707936",
        "meta_mean_motion": 2.28259428,
        "meta_eccentricity": 0.23297418,
        "meta_inclination": 6.1597,
        "meta_ra_of_asc_node": 292.6661,
        "meta_arg_of_pericenter": 184.3734,
        "meta_mean_anomaly": 159.3781,
        "meta_ephemeris_type": 0,
        "meta_classification_type": "U",
        "meta_norad_cat_id": 66455,
        "meta_element_set_no": 999,
        "meta_rev_at_epoch": 40,
        "meta_bstar": 0,
        "meta_mean_motion_dot": -4.8e-07,
        "meta_mean_motion_ddot": 0,
        "tle_line1": "1 66455U 25261B   25336.24317949 -.00000048  00000+0  00000+0 0  9991",
        "tle_line2": "2 66455   6.1597 292.6661 2329741 184.3734 159.3781  2.28259428   406"
      },
      "geometry": {
        "type": "Point",
        "coordinates": [
          81.7689243787406,
          3.1723590058991302
        ]
      }
    }
  ]
}